NORAD_CAT_ID,OBJECT_NAME,OBJECT_TYPE,EPOCH,MEAN_MOTION,ECCENTRICITY,INCLINATION,RA_OF_ASC_NODE,ARG_OF_PERICENTER,MEAN_ANOMALY,BSTAR,MEAN_MOTION_DOT,MEAN_MOTION_DDOT,TLE_LINE0,TLE_LINE1,TLE_LINE2,SEMIMAJOR_AXIS,PERIOD,APOGEE,PERIGEE,DECAYED
52454.0,STARLINK-3888,PAYLOAD,2023-11-19 01:29:08,15.08830598,0.000165,53.2181,247.3373,87.2103,272.9078,0.00024746,3.652e-05,0.0,0 STARLINK-3888,1 52454U 22049D   23323.06189828  .00003652  00000-0  24746-3 0  9994,2 52454  53.2181 247.3373 0001650  87.2103 272.9078 15.08830598 85212,6917.909,95.438,540.916,538.633,0.0
52454.0,STARLINK-3888,PAYLOAD,2023-11-19 12:36:50,15.08835443,0.0001813,53.2178,245.253,103.658,256.4614,0.00022934,3.363e-05,0.0,0 STARLINK-3888,1 52454U 22049D   23323.52558282  .00003363  00000-0  22934-3 0  9995,2 52454  53.2178 245.2530 0001813 103.6580 256.4614 15.08835443 85120,6917.894,95.438,541.014,538.505,0.0
52454.0,STARLINK-3888,PAYLOAD,2023-11-19 22:09:08,15.08841079,0.0001596,53.2165,243.4686,98.6253,261.492,0.00023575,3.466e-05,0.0,0 STARLINK-3888,1 52454U 22049D   23323.92302005  .00003466  00000-0  23575-3 0  9995,2 52454  53.2165 243.4686 0001596  98.6253 261.4920 15.08841079 85180,6917.877,95.437,540.846,538.638,0.0
52454.0,STARLINK-3888,PAYLOAD,2023-11-20 04:30:41,15.08848701,0.0001607,53.2163,242.2803,92.7454,267.3722,0.00035076,5.3e-05,0.0,0 STARLINK-3888,1 52454U 22049D   23324.18797767  .00005300  00000-0  35076-3 0  9995,2 52454  53.2163 242.2803 0001607  92.7454 267.3722 15.08848701 85383,6917.854,95.437,540.83,538.607,0.0
52454.0,STARLINK-3888,PAYLOAD,2023-11-20 21:59:55,15.08848253,0.0001727,53.2164,239.0073,96.2354,263.8835,8.9777e-05,1.141e-05,0.0,0 STARLINK-3888,1 52454U 22049D   23324.91661566  .00001141  00000-0  89777-4 0  9990,2 52454  53.2164 239.0073 0001727  96.2354 263.8835 15.08848253 85331,6917.855,95.437,540.915,538.525,0.0
52454.0,STARLINK-3888,PAYLOAD,2023-11-21 01:10:41,15.08850247,0.0001669,53.2165,238.4122,99.6409,260.4772,0.00019227,2.774e-05,0.0,0 STARLINK-3888,1 52454U 22049D   23325.04909400  .00002774  00000-0  19227-3 0  9992,2 52454  53.2165 238.4122 0001669  99.6409 260.4772 15.08850247 85512,6917.849,95.437,540.869,538.559,0.0
52454.0,STARLINK-3888,PAYLOAD,2023-11-21 04:21:27,15.08851636,0.0001647,53.2165,237.8182,96.6106,263.5074,0.00018891,2.721e-05,0.0,0 STARLINK-3888,1 52454U 22049D   23325.18157318  .00002721  00000-0  18891-3 0  9998,2 52454  53.2165 237.8182 0001647  96.6106 263.5074 15.08851636 85374,6917.845,95.437,540.849,538.57,0.0
52454.0,STARLINK-3888,PAYLOAD,2023-11-21 18:39:56,15.08841768,0.0001591,53.2164,235.1431,95.814,264.3034,5.1314e-05,5.29e-06,0.0,0 STARLINK-3888,1 52454U 22049D   23325.77773835  .00000529  00000-0  51314-4 0  9993,2 52454  53.2164 235.1431 0001591  95.8140 264.3034 15.08841768 85468,6917.875,95.437,540.841,538.639,0.0
52454.0,STARLINK-3888,PAYLOAD,2023-11-22 01:01:29,15.08844697,0.00016,53.2164,233.953,101.7447,258.3725,6.4439e-05,7.38e-06,0.0,0 STARLINK-3888,1 52454U 22049D   23326.04269696  .00000738  00000-0  64439-4 0  9993,2 52454  53.2164 233.9530 0001600 101.7447 258.3725 15.08844697 85668,6917.866,95.437,540.838,538.624,0.0
52454.0,STARLINK-3888,PAYLOAD,2023-11-22 04:12:15,15.08845745,0.0001632,53.2166,233.357,105.2178,254.8995,0.00012901,1.766e-05,0.0,0 STARLINK-3888,1 52454U 22049D   23326.17517572  .00001766  00000-0  12901-3 0  9994,2 52454  53.2166 233.3570 0001632 105.2178 254.8995 15.08845745 85523,6917.863,95.437,540.857,538.599,0.0
52454.0,STARLINK-3888,PAYLOAD,2023-11-22 21:41:29,15.08848,0.0001639,53.2162,230.0863,106.8736,253.2436,0.00016729,2.376e-05,0.0,0 STARLINK-3888,1 52454U 22049D   23326.90381431  .00002376  00000-0  16729-3 0  9998,2 52454  53.2162 230.0863 0001639 106.8736 253.2436 15.08848000 85634,6917.856,95.437,540.855,538.587,0.0
52454.0,STARLINK-3888,PAYLOAD,2023-11-23 02:27:38,15.08858133,0.0001548,53.2165,229.1965,87.1103,273.0066,0.00040499,6.166e-05,0.0,0 STARLINK-3888,1 52454U 22049D   23327.10253050  .00006166  00000-0  40499-3 0  9998,2 52454  53.2165 229.1965 0001548  87.1103 273.0066 15.08858133 85825,6917.825,95.436,540.761,538.619,0.0
52454.0,STARLINK-3888,PAYLOAD,2023-11-23 21:32:17,15.08828022,0.000133,53.2169,225.6246,88.044,272.0704,-0.00011559,-2.126e-05,0.0,0 STARLINK-3888,1 52454U 22049D   23327.89742446 -.00002126  00000-0 -11559-3 0  9995,2 52454  53.2169 225.6246 0001330  88.0440 272.0704 15.08828022 85782,6917.917,95.438,540.702,538.862,0.0
52454.0,STARLINK-3888,PAYLOAD,2023-11-24 02:18:26,15.08832098,0.0001589,53.2171,224.7324,98.9647,261.1525,6.7217e-05,7.82e-06,0.0,0 STARLINK-3888,1 52454U 22049D   23328.09614424  .00000782  00000-0  67217-4 0  9999,2 52454  53.2171 224.7324 0001589  98.9647 261.1525 15.08832098 85976,6917.905,95.438,540.869,538.67,0.0
52454.0,STARLINK-3888,PAYLOAD,2023-11-24 03:53:50,15.08831788,0.0001589,53.217,224.4368,104.2903,255.8266,9.4297e-05,1.213e-05,0.0,0 STARLINK-3888,1 52454U 22049D   23328.16238473  .00001213  00000-0  94297-4 0  9991,2 52454  53.2170 224.4368 0001589 104.2903 255.8266 15.08831788 85827,6917.905,95.438,540.87,538.671,0.0
52454.0,STARLINK-3888,PAYLOAD,2023-11-24 21:23:04,15.08834636,0.0001503,53.2162,221.1668,108.9537,251.1618,0.00030773,4.612e-05,0.0,0 STARLINK-3888,1 52454U 22049D   23328.89102955  .00004612  00000-0  30773-3 0  9990,2 52454  53.2162 221.1668 0001503 108.9537 251.1618 15.08834636 85932,6917.897,95.438,540.802,538.722,0.0
52454.0,STARLINK-3888,PAYLOAD,2023-11-25 02:09:14,15.08841993,0.0001626,53.2166,220.2749,94.9495,265.1683,0.00053752,8.277e-05,0.0,0 STARLINK-3888,1 52454U 22049D   23329.08975009  .00008277  00000-0  53752-3 0  9993,2 52454  53.2166 220.2749 0001626  94.9495 265.1683 15.08841993 85963,6917.874,95.437,540.864,538.614,0.0
52454.0,STARLINK-3888,PAYLOAD,2023-11-25 21:13:51,15.08863617,0.0001572,53.2164,216.7064,98.7521,261.3649,0.00086229,0.00013471,0.0,0 STARLINK-3888,1 52454U 22049D   23329.88462392  .00013471  00000-0  86229-3 0  9994,2 52454  53.2164 216.7064 0001572  98.7521 261.3649 15.08863617 86084,6917.808,95.436,540.761,538.586,0.0
52454.0,STARLINK-3888,PAYLOAD,2023-11-26 02:00:00,15.08886778,0.0001672,53.2161,215.8139,96.6061,263.5122,0.0016667,0.00026371,0.0,0 STARLINK-3888,1 52454U 22049D   23330.08333780  .00026371  00000-0  16667-2 0  9997,2 52454  53.2161 215.8139 0001672  96.6061 263.5122 15.08886778 86275,6917.737,95.435,540.759,538.446,0.0
52454.0,STARLINK-3888,PAYLOAD,2023-11-26 16:18:29,15.08836095,0.0001449,53.2158,213.1387,82.778,277.3377,-0.0001961,-3.407e-05,0.0,0 STARLINK-3888,1 52454U 22049D   23330.67950546 -.00003407  00000-0 -19610-3 0  9996,2 52454  53.2158 213.1387 0001449  82.7780 277.3377 15.08836095 86365,6917.892,95.438,540.76,538.755,0.0
52454.0,STARLINK-3888,PAYLOAD,2023-11-26 22:40:01,15.08835547,0.0001515,53.2161,211.9481,98.6431,261.4732,-0.0001034,-1.933e-05,0.0,0 STARLINK-3888,1 52454U 22049D   23330.94446649 -.00001933  00000-0 -10340-3 0  9993,2 52454  53.2161 211.9481 0001515  98.6431 261.4732 15.08835547 86240,6917.894,95.438,540.807,538.711,0.0
52454.0,STARLINK-3888,PAYLOAD,2023-11-27 19:20:03,15.08840488,0.0001445,53.2151,208.0839,91.6807,268.435,0.00040052,6.092e-05,0.0,0 STARLINK-3888,1 52454U 22049D   23331.80559042  .00006092  00000-0  40052-3 0  9993,2 52454  53.2151 208.0839 0001445  91.6807 268.4350 15.08840488 86530,6917.879,95.438,540.744,538.744,0.0
52454.0,STARLINK-3888,PAYLOAD,2023-11-27 22:30:49,15.08845084,0.0001579,53.2158,207.4895,86.2863,273.8309,0.00053684,8.267e-05,0.0,0 STARLINK-3888,1 52454U 22049D   23331.93807004  .00008267  00000-0  53684-3 0  9992,2 52454  53.2158 207.4895 0001579  86.2863 273.8309 15.08845084 86397,6917.865,95.437,540.822,538.638,0.0
52454.0,STARLINK-3888,PAYLOAD,2023-11-28 19:10:50,15.08844465,0.0001672,53.2161,203.6252,88.7552,271.3632,0.00023023,3.378e-05,0.0,0 STARLINK-3888,1 52454U 22049D   23332.79918995  .00003378  00000-0  23023-3 0  9991,2 52454  53.2161 203.6252 0001672  88.7552 271.3632 15.08844465 86688,6917.867,95.437,540.888,538.575,0.0
52454.0,STARLINK-3888,PAYLOAD,2023-11-28 22:21:36,15.08844174,0.0001655,53.2158,203.031,83.3846,276.7334,0.00021474,3.132e-05,0.0,0 STARLINK-3888,1 52454U 22049D   23332.93167018  .00003132  00000-0  21474-3 0  9995,2 52454  53.2158 203.0310 0001655  83.3846 276.7334 15.08844174 86541,6917.868,95.437,540.878,538.588,0.0
52454.0,STARLINK-3888,PAYLOAD,2023-11-29 01:32:22,15.08845963,0.0001543,53.2148,202.433,77.3287,282.7878,0.00024095,3.549e-05,0.0,0 STARLINK-3888,1 52454U 22049D   23333.06414890  .00003549  00000-0  24095-3 0  9997,2 52454  53.2148 202.4330 0001543  77.3287 282.7878 15.08845963 86562,6917.862,95.437,540.795,538.66,0.0
52454.0,STARLINK-3888,PAYLOAD,2023-11-30 01:23:09,15.08848566,0.0001752,53.2158,197.9693,91.8019,268.3174,3.1231e-05,2.09e-06,0.0,0 STARLINK-3888,1 52454U 22049D   23334.05774447  .00000209  00000-0  31231-4 0  9995,2 52454  53.2158 197.9693 0001752  91.8019 268.3174 15.08848566 86874,6917.854,95.437,540.931,538.507,0.0
52454.0,STARLINK-3888,PAYLOAD,2023-11-30 22:03:07,15.08908207,0.0001254,53.2159,194.1034,92.0222,268.0914,0.0010596,0.00016647,0.0,0 STARLINK-3888,1 52454U 22049D   23334.91883447  .00016647  00000-0  10596-2 0  9993,2 52454  53.2159 194.1034 0001254  92.0222 268.0914 15.08908207 87003,6917.672,95.433,540.404,538.669,0.0
52454.0,STARLINK-3888,PAYLOAD,2023-12-01 18:43:10,15.08842006,0.0001281,53.2155,190.2419,117.53,242.5822,-1.0866e-05,-4.61e-06,0.0,0 STARLINK-3888,1 52454U 22049D   23335.77998560 -.00000461  00000-0 -10866-4 0  9992,2 52454  53.2155 190.2419 0001281 117.5300 242.5822 15.08842006 87136,6917.874,95.437,540.625,538.853,0.0
52454.0,STARLINK-3888,PAYLOAD,2023-12-01 21:53:57,15.08828285,0.0001452,53.2151,189.6465,85.7099,274.4059,-0.00019128,-3.33e-05,0.0,0 STARLINK-3888,1 52454U 22049D   23335.91247341 -.00003330  00000-0 -19128-3 0  9999,2 52454  53.2151 189.6465 0001452  85.7099 274.4059 15.08828285 86998,6917.916,95.438,540.786,538.777,0.0
